sat03212
1 03212U 68026D   20046.88026777  .00000003  00000-0  29666-4 0  9993
2 03212  99.9427  22.9590 3822603 262.6654  53.4593  7.27812331373503
